     2              NAVIGATION DATA                         RINEX VERSION / TYPE
CCRINEXN V1.6.0 UX  CDDIS               02-DEC-23 17:26     PGM / RUN BY / DATE 
IGS BROADCAST EPHEMERIS FILE                                COMMENT             
    0.2794D-07  0.7451D-08 -0.1192D-06  0.1192D-06          ION ALPHA           
    0.1454D+06 -0.1802D+06  0.0000D+00  0.1311D+06          ION BETA            
   -0.931322574615D-09-0.888178419700D-15   147456     2291 DELTA-UTC: A0,A1,T,W
    18                                                      LEAP SECONDS        
                                                            END OF HEADER       
31 23 12  2 12  0  0.0-0.226259697229D-03-0.341060513165D-12 0.000000000000D+00
    0.610000000000D+02-0.215625000000D+01 0.491377610707D-08-0.232214476468D+01
   -0.197440385819D-06 0.106268752134D-01 0.707805156708D-05 0.515364930344D+04
    0.561600000000D+06 0.167638063431D-06 0.215606644699D+01-0.150874257088D-06
    0.954014392335D+00 0.238875000000D+03 0.632473941330D+00-0.799533303771D-08
    0.202865593023D-09 0.100000000000D+01 0.229000000000D+04 0.000000000000D+00
    0.200000000000D+01 0.000000000000D+00-0.135041773319D-07 0.610000000000D+02
    0.560166000000D+06 0.400000000000D+01 0.000000000000D+00 0.000000000000D+00
32 23 12  2 12  0  0.0-0.592184718698D-03-0.397903932026D-11 0.000000000000D+00
    0.640000000000D+02-0.697187500000D+02 0.437625371711D-08 0.211799407566D+01
   -0.361911952496D-05 0.717807561159D-02 0.949017703533D-05 0.515361014748D+04
    0.561600000000D+06-0.117346644402D-06 0.107684712682D+01-0.154599547386D-06
    0.960588784219D+00 0.197500000000D+03-0.221895437231D+01-0.780175354578D-08
    0.291083553370D-09 0.100000000000D+01 0.229000000000D+04 0.000000000000D+00
    0.200000000000D+01 0.000000000000D+00 0.465661287308D-09 0.640000000000D+02
    0.558756000000D+06 0.400000000000D+01 0.000000000000D+00 0.000000000000D+00
18 23 12  2 12 29 36.0-0.495363958180D-03-0.104591890704D-10 0.000000000000D+00
    0.460000000000D+02 0.432812500000D+02 0.424124809358D-08-0.431078706787D+00
    0.227242708206D-05 0.383433396928D-02 0.275671482086D-05 0.515364452743D+04
    0.563376000000D+06 0.838190317154D-07-0.989149496264D+00-0.931322574616D-08
    0.974286678677D+00 0.331843750000D+03-0.302852321346D+01-0.820927052050D-08
    0.164292557730D-09 0.100000000000D+01 0.229000000000D+04 0.000000000000D+00
    0.200000000000D+01 0.000000000000D+00-0.838190317154D-08 0.302000000000D+03
    0.556218000000D+06 0.400000000000D+01 0.000000000000D+00 0.000000000000D+00
23 23 12  2 13 29 36.0 0.108924228698D-03 0.670752342558D-11 0.000000000000D+00
    0.910000000000D+02-0.885312500000D+02 0.417338812408D-08-0.919368562819D+00
   -0.457279384136D-05 0.388864788692D-02 0.469759106636D-05 0.515369901276D+04
    0.566976000000D+06 0.204890966415D-07 0.107644204042D-01-0.279396772385D-07
    0.976959394897D+00 0.295593750000D+03-0.302337332489D+01-0.801854829044D-08
    0.103575742917D-10 0.100000000000D+01 0.229000000000D+04 0.000000000000D+00
    0.200000000000D+01 0.000000000000D+00-0.838190317154D-08 0.603000000000D+03
    0.559818000000D+06 0.400000000000D+01 0.000000000000D+00 0.000000000000D+00
17 23 12  2 13 59 44.0 0.722571741790D-03-0.568434188608D-12 0.000000000000D+00
    0.250000000000D+02 0.788125000000D+02 0.389087635633D-08 0.246225619723D+01
    0.420212745667D-05 0.138130484847D-01 0.773556530476D-05 0.515363002968D+04
    0.568784000000D+06 0.126659870148D-06-0.199382204260D+01 0.335276126862D-07
    0.971551561685D+00 0.229843750000D+03-0.136691064246D+01-0.752031325123D-08
   -0.176435920693D-09 0.100000000000D+01 0.229000000000D+04 0.000000000000D+00
    0.200000000000D+01 0.000000000000D+00-0.111758708954D-07 0.250000000000D+02
    0.561618000000D+06 0.400000000000D+01 0.000000000000D+00 0.000000000000D+00
21 23 12  2 13 59 44.0 0.142690725625D-03-0.102318153950D-11 0.000000000000D+00
    0.600000000000D+01 0.706250000000D+02 0.437661087484D-08 0.242597665980D+01
    0.358745455742D-05 0.249930715654D-01 0.332668423653D-05 0.515375476837D+04
    0.568784000000D+06 0.266358256340D-06-0.109637914297D+01 0.339001417160D-06
    0.961736832588D+00 0.312000000000D+03-0.676285313952D+00-0.800890503161D-08
   -0.485734518507D-10 0.100000000000D+01 0.229000000000D+04 0.000000000000D+00
    0.200000000000D+01 0.000000000000D+00-0.102445483208D-07 0.600000000000D+01
    0.561912000000D+06 0.400000000000D+01 0.000000000000D+00 0.000000000000D+00
 1 23 12  2 14  0  0.0 0.163504388183D-03 0.341060513165D-12 0.000000000000D+00
    0.730000000000D+02 0.450937500000D+02 0.388266172845D-08 0.274484906861D+00
    0.228732824326D-05 0.129772946238D-01 0.385940074921D-05 0.515402698517D+04
    0.568800000000D+06-0.128522515297D-06-0.987430293955D+00 0.152736902237D-06
    0.990382483120D+00 0.322156250000D+03 0.100041984787D+01-0.815712549130D-08
    0.989326923723D-10 0.100000000000D+01 0.229000000000D+04 0.000000000000D+00
    0.280000000000D+01 0.630000000000D+02 0.512227416039D-08 0.730000000000D+02
    0.566658000000D+06 0.400000000000D+01 0.000000000000D+00 0.000000000000D+00
 2 23 12  2 14  0  0.0-0.521109905094D-03 0.522959453519D-11 0.000000000000D+00
    0.470000000000D+02 0.631562500000D+02 0.426017745349D-08 0.289656482233D+01
    0.312738120556D-05 0.162381588016D-01 0.334717333317D-05 0.515391479302D+04
    0.568800000000D+06 0.284984707832D-06-0.109024026180D+01 0.428408384323D-07
    0.967455802143D+00 0.314781250000D+03-0.129860967301D+01-0.794640242813D-08
    0.100361323309D-09 0.100000000000D+01 0.229000000000D+04 0.000000000000D+00
    0.200000000000D+01 0.000000000000D+00-0.176951289177D-07 0.470000000000D+02
    0.563448000000D+06 0.400000000000D+01 0.000000000000D+00 0.000000000000D+00
 3 23 12  2 14  0  0.0 0.258567743003D-04 0.268300937023D-10 0.000000000000D+00
    0.840000000000D+02-0.795937500000D+02 0.413195782691D-08-0.852161626421D+00
   -0.400468707085D-05 0.507112126797D-02 0.483915209770D-05 0.515355948067D+04
    0.568800000000D+06-0.558793544769D-08 0.414561286427D-01 0.126659870148D-06
    0.982120730802D+00 0.302000000000D+03 0.111009863449D+01-0.805104964425D-08
    0.164292557730D-10 0.100000000000D+01 0.229000000000D+04 0.000000000000D+00
    0.280000000000D+01 0.000000000000D+00 0.186264514923D-08 0.840000000000D+02
    0.568548000000D+06 0.400000000000D+01 0.000000000000D+00 0.000000000000D+00
 4 23 12  2 14  0  0.0 0.228751916438D-03 0.102318153950D-10 0.000000000000D+00
    0.165000000000D+03-0.641875000000D+02 0.444518515980D-08 0.216437977449D+01
   -0.321492552757D-05 0.272141548339D-02 0.925548374653D-05 0.515360911751D+04
    0.568800000000D+06-0.447034835815D-07 0.112102482876D+01 0.968575477600D-07
    0.963599168265D+00 0.203906250000D+03-0.304971148109D+01-0.788175687824D-08
    0.327156484524D-09 0.100000000000D+01 0.229000000000D+04 0.000000000000D+00
    0.200000000000D+01 0.000000000000D+00-0.465661287308D-08 0.421000000000D+03
    0.561618000000D+06 0.400000000000D+01 0.000000000000D+00 0.000000000000D+00
 5 23 12  2 14  0  0.0-0.152596272528D-03-0.147792889038D-11 0.000000000000D+00
    0.320000000000D+02-0.779062500000D+02 0.432375153018D-08 0.275320877061D+01
   -0.411272048950D-05 0.584797479678D-02 0.468082726002D-05 0.515377002144D+04
    0.568800000000D+06 0.279396772385D-07-0.755239943346D-02-0.912696123123D-07
    0.969115798694D+00 0.294843750000D+03 0.123781509423D+01-0.794854537453D-08
   -0.678599694973D-11 0.100000000000D+01 0.229000000000D+04 0.000000000000D+00
    0.200000000000D+01 0.000000000000D+00-0.111758708954D-07 0.320000000000D+02
    0.561618000000D+06 0.400000000000D+01 0.000000000000D+00 0.000000000000D+00
 6 23 12  2 14  0  0.0 0.489849131554D-03-0.109139364213D-10 0.000000000000D+00
    0.240000000000D+02 0.335625000000D+02 0.382587364871D-08 0.479049639735D+00
    0.178627669811D-05 0.306052388623D-02 0.367499887943D-05 0.515378862381D+04
    0.568800000000D+06-0.223517417908D-07-0.995788183398D+00-0.521540641785D-07
    0.989519683295D+00 0.320250000000D+03-0.827881057186D+00-0.796926052312D-08
    0.121076471893D-09 0.100000000000D+01 0.229000000000D+04 0.000000000000D+00
    0.200000000000D+01 0.000000000000D+00 0.372529029846D-08 0.240000000000D+02
    0.561618000000D+06 0.400000000000D+01 0.000000000000D+00 0.000000000000D+00
 7 23 12  2 14  0  0.0-0.164192169905D-05-0.977706804406D-11 0.000000000000D+00
    0.180000000000D+02 0.459375000000D+01 0.514164274149D-08-0.423815508703D+00
    0.344589352608D-06 0.176677078707D-01 0.713765621185D-05 0.515369070435D+04
    0.568800000000D+06-0.912696123123D-07 0.213523961668D+01 0.199303030968D-06
    0.949969363866D+00 0.237218750000D+03-0.216427315848D+01-0.848499629130D-08
    0.817891211309D-10 0.100000000000D+01 0.229000000000D+04 0.000000000000D+00
    0.200000000000D+01 0.000000000000D+00-0.111758708954D-07 0.180000000000D+02
    0.561618000000D+06 0.400000000000D+01 0.000000000000D+00 0.000000000000D+00
 8 23 12  2 14  0  0.0-0.154956709593D-03-0.193267624127D-11 0.000000000000D+00
    0.920000000000D+02 0.862812500000D+02 0.437518224390D-08 0.238655970876D+01
    0.440515577793D-05 0.900700839702D-02 0.880286097527D-05 0.515379291916D+04
    0.568800000000D+06-0.182539224625D-06-0.208579787468D+01-0.204890966415D-07
    0.955914462520D+00 0.207812500000D+03 0.282531077719D+00-0.791140097018D-08
   -0.213937482783D-09 0.100000000000D+01 0.229000000000D+04 0.000000000000D+00
    0.200000000000D+01 0.000000000000D+00 0.512227416039D-08 0.920000000000D+02
    0.561618000000D+06 0.400000000000D+01 0.000000000000D+00 0.000000000000D+00
